STARLINK-11596 [DTC]    
1 64321U 25124E   26056.81052449  .00294704  00000+0  22123-2 0  9999
2 64321  43.0002 101.0393 0000886  12.1611 347.9277 15.70918863 40964
STARLINK-11747 [DTC]    
1 64322U 25124F   26056.48198388  .00184990  00000+0  14108-2 0  9995
2 64322  43.0009 102.8703 0000835 300.3164  59.7621 15.70882124 40911
STARLINK-11728 [DTC]    
1 64323U 25124G   26056.83163280  .00216475  00000+0  16427-2 0  9998
2 64323  42.9986 100.3131 0000631 359.3514   0.7352 15.70901133 40974
STARLINK-11696 [DTC]    
1 64324U 25124H   26057.16015095  .00159244  00000+0  12167-2 0  9993
2 64324  43.0009  98.4758 0003308 220.2006 139.8617 15.70917624 41028
STARLINK-11698 [DTC]    
1 64325U 25124J   26057.10279292  .00332439  00000+0  24723-2 0  9999
2 64325  43.0003  98.9145 0002026 229.9612 130.1078 15.71030019 41012
STARLINK-11678 [DTC]    
1 64326U 25124K   26057.12311839  .00238600  00000+0  17997-2 0  9996
2 64326  43.0004  99.0776 0001652 261.3941  98.6740 15.70977508 41011
STARLINK-11674 [DTC]    
1 64327U 25124L   26057.15484458  .00125579  00000+0  96547-3 0  9997
2 64327  43.0004  98.4387 0001060 284.5919  75.4831 15.70888930 41023
STARLINK-11707 [DTC]    
1 64328U 25124M   26057.23435668  .00260115  00000+0  19557-2 0  9997
2 64328  42.9999  98.1817 0001720 216.4862 143.5888 15.70987489 41033
STARLINK-11734 [DTC]    
1 64329U 25124N   26057.14422390  .00193867  00000+0  14740-2 0  9994
2 64329  43.0003  98.3508 0001166 240.5564 119.5188 15.70926535 41022
STARLINK-34252          
1 64330U 25124P   26056.69285630  .00027331  00000+0  99842-3 0  9998
2 64330  43.0062 189.6449 0002090 275.1245  84.9368 15.27599741 39944
STARLINK-34050          
1 64331U 25124Q   26056.42103508  .00027226  00000+0  99462-3 0  9994
2 64331  43.0022 191.0400 0002585 281.0260  79.0301 15.27599245 40962
STARLINK-33782          
1 64332U 25124R   26056.40948706  .00034042  00000+0  12398-2 0  9996
2 64332  43.0002 190.9447 0001357 281.7640  78.3060 15.27608233 39909
STARLINK-34207          
1 64333U 25124S   26056.42745644  .00021784  00000+0  79840-3 0  9990
2 64333  42.9989 191.0840 0001846 245.8490 114.2168 15.27595385 39900
STARLINK-34260          
1 64334U 25124T   26056.63134376  .00021468  00000+0  78823-3 0  9997
2 64334  43.0015 190.0367 0001748 267.7539  92.3112 15.27544492 39935
STARLINK-33855          
1 64335U 25124U   26056.40559900  .00002219  00000+0  90118-4 0  9992
2 64335  43.0021 190.9102 0001910 257.8029 102.2609 15.27591888 39904
STARLINK-34223          
1 64336U 25124V   26056.65606615 -.00014361  00000+0 -51273-3 0  9997
2 64336  42.9969 185.8888 0001814 276.4990  83.5655 15.27618220 39985
