[{"OBJECT_NAME":"STARLINK-11596 [DTC]","OBJECT_ID":"2025-124E","EPOCH":"2026-02-25T19:27:09.315936","MEAN_MOTION":15.70918863,"ECCENTRICITY":8.86e-5,"INCLINATION":43.0002,"RA_OF_ASC_NODE":101.0393,"ARG_OF_PERICENTER":12.1611,"MEAN_ANOMALY":347.9277,"EPHEMERIS_TYPE":0,"CLASSIFICATION_TYPE":"U","NORAD_CAT_ID":64321,"ELEMENT_SET_NO":999,"REV_AT_EPOCH":4096,"BSTAR":0.0022123,"MEAN_MOTION_DOT":0.00294704,"MEAN_MOTION_DDOT":0},{"OBJECT_NAME":"STARLINK-11747 [DTC]","OBJECT_ID":"2025-124F","EPOCH":"2026-02-25T11:34:03.407232","MEAN_MOTION":15.70882124,"ECCENTRICITY":8.351e-5,"INCLINATION":43.0009,"RA_OF_ASC_NODE":102.8703,"ARG_OF_PERICENTER":300.3164,"MEAN_ANOMALY":59.7621,"EPHEMERIS_TYPE":0,"CLASSIFICATION_TYPE":"U","NORAD_CAT_ID":64322,"ELEMENT_SET_NO":999,"REV_AT_EPOCH":4091,"BSTAR":0.0014108203,"MEAN_MOTION_DOT":0.0018499,"MEAN_MOTION_DDOT":0},{"OBJECT_NAME":"STARLINK-11728 [DTC]","OBJECT_ID":"2025-124G","EPOCH":"2026-02-25T19:57:33.073920","MEAN_MOTION":15.70901133,"ECCENTRICITY":6.31e-5,"INCLINATION":42.9986,"RA_OF_ASC_NODE":100.3131,"ARG_OF_PERICENTER":359.3514,"MEAN_ANOMALY":0.7352,"EPHEMERIS_TYPE":0,"CLASSIFICATION_TYPE":"U","NORAD_CAT_ID":64323,"ELEMENT_SET_NO":999,"REV_AT_EPOCH":4097,"BSTAR":0.0016427,"MEAN_MOTION_DOT":0.00216475,"MEAN_MOTION_DDOT":0},{"OBJECT_NAME":"STARLINK-11696 [DTC]","OBJECT_ID":"2025-124H","EPOCH":"2026-02-26T03:50:37.042080","MEAN_MOTION":15.70917624,"ECCENTRICITY":0.00033083,"INCLINATION":43.0009,"RA_OF_ASC_NODE":98.4758,"ARG_OF_PERICENTER":220.2006,"MEAN_ANOMALY":139.8617,"EPHEMERIS_TYPE":0,"CLASSIFICATION_TYPE":"U","NORAD_CAT_ID":64324,"ELEMENT_SET_NO":999,"REV_AT_EPOCH":4102,"BSTAR":0.0012167377,"MEAN_MOTION_DOT":0.00159244,"MEAN_MOTION_DDOT":0},{"OBJECT_NAME":"STARLINK-11698 [DTC]","OBJECT_ID":"2025-124J","EPOCH":"2026-02-26T02:28:01.308288","MEAN_MOTION":15.71030019,"ECCENTRICITY":0.00020266,"INCLINATION":43.0003,"RA_OF_ASC_NODE":98.9145,"ARG_OF_PERICENTER":229.9612,"MEAN_ANOMALY":130.1078,"EPHEMERIS_TYPE":0,"CLASSIFICATION_TYPE":"U","NORAD_CAT_ID":64325,"ELEMENT_SET_NO":999,"REV_AT_EPOCH":4101,"BSTAR":0.0024722607,"MEAN_MOTION_DOT":0.00332439,"MEAN_MOTION_DDOT":0},{"OBJECT_NAME":"STARLINK-11678 [DTC]","OBJECT_ID":"2025-124K","EPOCH":"2026-02-26T02:57:17.428896","MEAN_MOTION":15.70977508,"ECCENTRICITY":0.00016526,"INCLINATION":43.0004,"RA_OF_ASC_NODE":99.0776,"ARG_OF_PERICENTER":261.3941,"MEAN_ANOMALY":98.674,"EPHEMERIS_TYPE":0,"CLASSIFICATION_TYPE":"U","NORAD_CAT_ID":64326,"ELEMENT_SET_NO":999,"REV_AT_EPOCH":4101,"BSTAR":0.0017996744,"MEAN_MOTION_DOT":0.002386,"MEAN_MOTION_DDOT":0},{"OBJECT_NAME":"STARLINK-11674 [DTC]","OBJECT_ID":"2025-124L","EPOCH":"2026-02-26T03:42:58.571712","MEAN_MOTION":15.7088893,"ECCENTRICITY":0.00010609,"INCLINATION":43.0004,"RA_OF_ASC_NODE":98.4387,"ARG_OF_PERICENTER":284.5919,"MEAN_ANOMALY":75.4831,"EPHEMERIS_TYPE":0,"CLASSIFICATION_TYPE":"U","NORAD_CAT_ID":64327,"ELEMENT_SET_NO":999,"REV_AT_EPOCH":4102,"BSTAR":0.00096547093,"MEAN_MOTION_DOT":0.00125579,"MEAN_MOTION_DDOT":0},{"OBJECT_NAME":"STARLINK-11707 [DTC]","OBJECT_ID":"2025-124M","EPOCH":"2026-02-26T05:37:28.417152","MEAN_MOTION":15.70987489,"ECCENTRICITY":0.00017201,"INCLINATION":42.9999,"RA_OF_ASC_NODE":98.1817,"ARG_OF_PERICENTER":216.4862,"MEAN_ANOMALY":143.5888,"EPHEMERIS_TYPE":0,"CLASSIFICATION_TYPE":"U","NORAD_CAT_ID":64328,"ELEMENT_SET_NO":999,"REV_AT_EPOCH":4103,"BSTAR":0.0019557131,"MEAN_MOTION_DOT":0.00260115,"MEAN_MOTION_DDOT":0},{"OBJECT_NAME":"STARLINK-11734 [DTC]","OBJECT_ID":"2025-124N","EPOCH":"2026-02-26T03:27:40.944960","MEAN_MOTION":15.70926535,"ECCENTRICITY":0.00011663,"INCLINATION":43.0003,"RA_OF_ASC_NODE":98.3508,"ARG_OF_PERICENTER":240.5564,"MEAN_ANOMALY":119.5188,"EPHEMERIS_TYPE":0,"CLASSIFICATION_TYPE":"U","NORAD_CAT_ID":64329,"ELEMENT_SET_NO":999,"REV_AT_EPOCH":4102,"BSTAR":0.0014740203,"MEAN_MOTION_DOT":0.00193867,"MEAN_MOTION_DDOT":0},{"OBJECT_NAME":"STARLINK-34252","OBJECT_ID":"2025-124P","EPOCH":"2026-02-25T16:37:42.784320","MEAN_MOTION":15.27599741,"ECCENTRICITY":0.00020901,"INCLINATION":43.0062,"RA_OF_ASC_NODE":189.6449,"ARG_OF_PERICENTER":275.1245,"MEAN_ANOMALY":84.9368,"EPHEMERIS_TYPE":0,"CLASSIFICATION_TYPE":"U","NORAD_CAT_ID":64330,"ELEMENT_SET_NO":999,"REV_AT_EPOCH":3994,"BSTAR":0.00099842191,"MEAN_MOTION_DOT":0.00027331,"MEAN_MOTION_DDOT":0},{"OBJECT_NAME":"STARLINK-34050","OBJECT_ID":"2025-124Q","EPOCH":"2026-02-25T10:06:17.430912","MEAN_MOTION":15.27599245,"ECCENTRICITY":0.00025854,"INCLINATION":43.0022,"RA_OF_ASC_NODE":191.04,"ARG_OF_PERICENTER":281.026,"MEAN_ANOMALY":79.0301,"EPHEMERIS_TYPE":0,"CLASSIFICATION_TYPE":"U","NORAD_CAT_ID":64331,"ELEMENT_SET_NO":999,"REV_AT_EPOCH":4096,"BSTAR":0.00099462169,"MEAN_MOTION_DOT":0.00027226,"MEAN_MOTION_DDOT":0},{"OBJECT_NAME":"STARLINK-33782","OBJECT_ID":"2025-124R","EPOCH":"2026-02-25T09:49:39.681984","MEAN_MOTION":15.27608233,"ECCENTRICITY":0.00013578,"INCLINATION":43.0002,"RA_OF_ASC_NODE":190.9447,"ARG_OF_PERICENTER":281.764,"MEAN_ANOMALY":78.306,"EPHEMERIS_TYPE":0,"CLASSIFICATION_TYPE":"U","NORAD_CAT_ID":64332,"ELEMENT_SET_NO":999,"REV_AT_EPOCH":3990,"BSTAR":0.0012398247,"MEAN_MOTION_DOT":0.00034042,"MEAN_MOTION_DDOT":0},{"OBJECT_NAME":"STARLINK-34207","OBJECT_ID":"2025-124S","EPOCH":"2026-02-25T10:15:32.236416","MEAN_MOTION":15.27595385,"ECCENTRICITY":0.00018467,"INCLINATION":42.9989,"RA_OF_ASC_NODE":191.084,"ARG_OF_PERICENTER":245.849,"MEAN_ANOMALY":114.2168,"EPHEMERIS_TYPE":0,"CLASSIFICATION_TYPE":"U","NORAD_CAT_ID":64333,"ELEMENT_SET_NO":999,"REV_AT_EPOCH":3990,"BSTAR":0.00079840306,"MEAN_MOTION_DOT":0.00021784,"MEAN_MOTION_DDOT":0},{"OBJECT_NAME":"STARLINK-34260","OBJECT_ID":"2025-124T","EPOCH":"2026-02-25T15:09:08.100864","MEAN_MOTION":15.27544492,"ECCENTRICITY":0.00017488,"INCLINATION":43.0015,"RA_OF_ASC_NODE":190.0367,"ARG_OF_PERICENTER":267.7539,"MEAN_ANOMALY":92.3112,"EPHEMERIS_TYPE":0,"CLASSIFICATION_TYPE":"U","NORAD_CAT_ID":64334,"ELEMENT_SET_NO":999,"REV_AT_EPOCH":3993,"BSTAR":0.00078822958,"MEAN_MOTION_DOT":0.00021468,"MEAN_MOTION_DDOT":0},{"OBJECT_NAME":"STARLINK-33855","OBJECT_ID":"2025-124U","EPOCH":"2026-02-25T09:44:03.753600","MEAN_MOTION":15.27591888,"ECCENTRICITY":0.00019104,"INCLINATION":43.0021,"RA_OF_ASC_NODE":190.9102,"ARG_OF_PERICENTER":257.8029,"MEAN_ANOMALY":102.2609,"EPHEMERIS_TYPE":0,"CLASSIFICATION_TYPE":"U","NORAD_CAT_ID":64335,"ELEMENT_SET_NO":999,"REV_AT_EPOCH":3990,"BSTAR":9.0117597e-5,"MEAN_MOTION_DOT":2.219e-5,"MEAN_MOTION_DDOT":0},{"OBJECT_NAME":"STARLINK-34223","OBJECT_ID":"2025-124V","EPOCH":"2026-02-25T15:44:44.115360","MEAN_MOTION":15.2761822,"ECCENTRICITY":0.0001814,"INCLINATION":42.9969,"RA_OF_ASC_NODE":185.8888,"ARG_OF_PERICENTER":276.499,"MEAN_ANOMALY":83.5655,"EPHEMERIS_TYPE":0,"CLASSIFICATION_TYPE":"U","NORAD_CAT_ID":64336,"ELEMENT_SET_NO":999,"REV_AT_EPOCH":3998,"BSTAR":-0.00051273,"MEAN_MOTION_DOT":-0.00014361,"MEAN_MOTION_DDOT":0}]
